{
    "links": {
        "self": "http://www.neowsapp.com/rest/v1/neo/3092345?api_key=iIulBulltgU6a56xZRHN4H3l9WmuAYTsLGpBGhQ2"
    },
    "id": "3092345",
    "neo_reference_id": "3092345",
    "name": "(2001 SS287)",
    "designation": "2001 SS287",
    "nasa_jpl_url": "http://ssd.jpl.nasa.gov/sbdb.cgi?sstr=3092345",
    "absolute_magnitude_h": 18.3,
    "estimated_diameter": {
        "kilometers": {
            "estimated_diameter_min": 0.5815070396,
            "estimated_diameter_max": 1.30028927
        },
        "meters": {
            "estimated_diameter_min": 581.5070396458,
            "estimated_diameter_max": 1300.2892700427
        },
        "miles": {
            "estimated_diameter_min": 0.3613316107,
            "estimated_diameter_max": 0.807962044
        },
        "feet": {
            "estimated_diameter_min": 1907.8315559515,
            "estimated_diameter_max": 4266.0410487267
        }
    },
    "is_potentially_hazardous_asteroid": false,
    "close_approach_data": [
        {
            "close_approach_date": "1935-11-13",
            "close_approach_date_full": "1935-Nov-13 23:10",
            "epoch_date_close_approach": -1077151800000,
            "relative_velocity": {
                "kilometers_per_second": "12.2166888663",
                "kilometers_per_hour": "43980.0799185976",
                "miles_per_hour": "27327.5113249752"
            },
            "miss_distance": {
                "astronomical": "0.1792246656",
                "lunar": "69.7183949184",
                "kilometers": "26811628.225222272",
                "miles": "16659973.2459284736"
            },
            "orbiting_body": "Earth"
        },
        {
            "close_approach_date": "1995-12-08",
            "close_approach_date_full": "1995-Dec-08 20:33",
            "epoch_date_close_approach": 818454780000,
            "relative_velocity": {
                "kilometers_per_second": "19.3001496201",
                "kilometers_per_hour": "69480.5386324741",
                "miles_per_hour": "43172.5046852726"
            },
            "miss_distance": {
                "astronomical": "0.3971477055",
                "lunar": "154.4904574395",
                "kilometers": "59412450.818187285",
                "miles": "36917185.065803133"
            },
            "orbiting_body": "Earth"
        },
        {
            "close_approach_date": "2001-10-14",
            "close_approach_date_full": "2001-Oct-14 22:24",
            "epoch_date_close_approach": 1003098240000,
            "relative_velocity": {
                "kilometers_per_second": "16.173518861",
                "kilometers_per_hour": "58224.6678996108",
                "miles_per_hour": "36178.5443401776"
            },
            "miss_distance": {
                "astronomical": "0.3213442403",
                "lunar": "125.0029094767",
                "kilometers": "48072413.885648161",
                "miles": "29870812.8605441818"
            },
            "orbiting_body": "Earth"
        },
        {
            "close_approach_date": "2059-10-16",
            "close_approach_date_full": "2059-Oct-16 06:12",
            "epoch_date_close_approach": 2833510320000,
            "relative_velocity": {
                "kilometers_per_second": "15.869479124",
                "kilometers_per_hour": "57130.1248463204",
                "miles_per_hour": "35498.4378524262"
            },
            "miss_distance": {
                "astronomical": "0.2495325491",
                "lunar": "97.0681615999",
                "kilometers": "37329537.841030417",
                "miles": "23195499.2248250746"
            },
            "orbiting_body": "Earth"
        },
        {
            "close_approach_date": "2082-10-29",
            "close_approach_date_full": "2082-Oct-29 00:39",
            "epoch_date_close_approach": 3560459940000,
            "relative_velocity": {
                "kilometers_per_second": "14.0398228897",
                "kilometers_per_hour": "50543.362403096",
                "miles_per_hour": "31405.6798220793"
            },
            "miss_distance": {
                "astronomical": "0.1404216502",
                "lunar": "54.6240219278",
                "kilometers": "21006779.771805074",
                "miles": "13053007.6741910612"
            },
            "orbiting_body": "Earth"
        }
    ],
    "orbital_data": {
        "orbit_id": "22",
        "orbit_determination_date": "2017-04-06 09:16:03",
        "first_observation_date": "2001-09-27",
        "last_observation_date": "2007-06-14",
        "data_arc_in_days": 2086,
        "observations_used": 82,
        "orbit_uncertainty": "0",
        "minimum_orbit_intersection": ".0588451",
        "jupiter_tisserand_invariant": "2.710",
        "epoch_osculation": "2459000.5",
        "eccentricity": ".676603849844822",
        "semi_major_axis": "3.235198229177162",
        "inclination": "18.48070617614579",
        "ascending_node_longitude": "230.8264143135078",
        "orbital_period": "2125.44451022322",
        "perihelion_distance": "1.046250652304743",
        "perihelion_argument": "173.9267160156365",
        "aphelion_distance": "5.424145806049581",
        "perihelion_time": "2458609.399793365942",
        "mean_anomaly": "66.2431193621112",
        "mean_motion": ".1693763343472052",
        "equinox": "J2000",
        "orbit_class": {
            "orbit_class_type": "AMO",
            "orbit_class_description": "Near-Earth asteroid orbits similar to that of 1221 Amor",
            "orbit_class_range": "1.017 AU < q (perihelion) < 1.3 AU"
        }
    },
    "is_sentry_object": false
}